{
  "name": "SATGUS",
  "line1": "1 62713U 25009DJ  26167.73041580  .00005010  00000+0  39489-3 0  9996",
  "line2": "2 62713  97.6920 249.1122 0008634 125.3541 234.8491 15.01189199 77499",
  "fetched_at": "2026-06-17T00:52:53.321933+00:00"
}